SAUDISAT 5A             
1 43831U 18102A   26177.20155245  .00006328  00000+0  23298-3 0  9993
2 43831  97.3069 238.6087 0011316 101.7469 258.5041 15.28135907417052
SAUDISAT 5B             
1 43833U 18102C   26177.21889479  .00005881  00000+0  21502-3 0  9998
2 43833  97.3178 241.7117 0012036 103.6175 256.6406 15.28388207417179
GAOFEN-10R              
1 44622U 19066A   26177.19476152  .00001104  00000+0  14253-3 0  9991
2 44622  98.0499 130.8396 0007123 101.8406 258.3606 14.83017983363716
CARTOSAT-3              
1 44804U 19081A   26177.18050191  .00005497  00000+0  26384-3 0  9997
2 44804  97.4307 238.9032 0013146 119.2572 240.9978 15.19199662364833
GAOFEN-12 01            
1 44819U 19082A   26177.20406519  .00000384  00000+0  56839-4 0  9995
2 44819  97.8101 183.3454 0001931  61.2895 298.8511 14.80465305355426
CSG-1                   
1 44873U 19092A   26177.16526166  .00000409  00000+0  57936-4 0  9999
2 44873  97.8890   0.6378 0001449  89.8663 270.2716 14.82160138352808
NEMO-HD                 
1 46277U 20061F   26177.19911735  .00012002  00000+0  25834-3 0  9993
2 46277  97.1923 239.0612 0001850  74.9423 285.2030 15.44768000323378
SENTINEL-6A             
1 46984U 20086A   26177.14229198 -.00000072  00000+0 -48020-4 0  9994
2 46984  66.0407 116.4528 0007872 270.0438  89.9675 12.80929982261475
CAS500-1                
1 47932U 21022A   26177.21268278  .00006498  00000+0  30324-3 0  9992
2 47932  97.3897  72.2832 0003542 250.6019 109.4834 15.20170129292135
GAOFEN-12 02            
1 48079U 21026A   26177.21609171  .00000357  00000+0  53809-4 0  9992
2 48079  97.9923 175.3597 0004395 187.6768 172.4377 14.80302599283094
PLEIADES NEO 3          
1 48268U 21034A   26177.16743420  .00001921  00000+0  25071-3 0  9998
2 48268  97.8933 251.8047 0001392  88.9286 271.2086 14.81671980278987
PLEIADES NEO 4          
1 49070U 21073E   26176.79598639  .00000871  00000+0  11725-3 0  9995
2 49070  97.8934 251.4352 0001377  85.9629 274.1741 14.81678649262641
LANDSAT 9               
1 49260U 21088A   26177.19230227  .00000314  00000+0  79879-4 0  9990
2 49260  98.2278 247.2607 0001275  84.6277 275.5067 14.57102844252317
CSG-2                   
1 51444U 22008A   26177.19899177  .00000466  00000+0  65065-4 0  9995
2 51444  97.8890   0.6660 0001527  85.2434 274.8953 14.82149887237923
GAOFEN-12 03            
1 52912U 22069A   26177.17999631  .00001123  00000+0  15494-3 0  9998
2 52912  97.8275  64.8231 0002321  93.3980 266.7497 14.80047780215944
SWOT                    
1 54754U 22173A   26177.13439976  .00000025  00000+0  18587-4 0  9994
2 54754  77.6102  23.2312 0000283  85.7977 274.3207 14.00170618180405
GAOFEN-12 04            
1 57654U 23123A   26177.12821935  .00000416  00000+0  62137-4 0  9995
2 57654  97.9116  95.0170 0003987  89.3975 270.7694 14.79741613153953
PARS 1                  
1 59065U 24039Q   26177.18298396  .00011984  00000+0  24774-3 0  9991
2 59065  97.4820 158.3868 0011526  85.3463 274.9102 15.45902515130039
RESURS-P 4              
1 59371U 24061A   26177.14531370  .00003243  00000+0  10684-3 0  9998
2 59371  97.2749 124.8879 0002760 116.6075 243.5450 15.32178714125139
LEGION 1                
1 59625U 24081A   26177.19957521  .00003686  00000+0  19134-3 0  9997
2 59625  97.5019 254.9602 0008640 346.3604  13.7395 15.16723813118906
LEGION 2                
1 59626U 24081B   26177.16370903  .00004489  00000+0  23231-3 0  9993
2 59626  97.5019 255.0220 0010089 309.6015  50.4326 15.16701681118904
ALOS-4 (DAICHI-4)       
1 60182U 24123A   26177.28896080  .00001447  00000+0  20065-3 0  9994
2 60182  97.9218 274.3344 0001580  95.7742 264.3649 14.79474324107221
LEGION 3                
1 60452U 24146A   26177.15805870  .00004263  00000+0  23081-3 0  9992
2 60452  45.0026 342.4412 0008720 220.3591 139.6641 15.16106210103383
LEGION 4                
1 60453U 24146B   26177.16122354  .00004263  00000+0  23074-3 0  9995
2 60453  45.0017  74.3343 0012777 356.9313   3.1485 15.16097368102230
SENTINEL-2C             
1 60989U 24157A   26177.19351699  .00000092  00000+0  51714-4 0  9999
2 60989  98.5691 251.8483 0000940  87.8570 272.2721 14.30820079 94270
IONOSFERA-M 1           
1 61735U 24199A   26177.19550611  .00000056  00000+0  44388-4 0  9999
2 61735  98.7164  50.2722 0002152  98.4867 261.6555 14.22755898128988
IONOSFERA-M 2           
1 61736U 24199B   26177.15945374  .00000056  00000+0  44418-4 0  9994
2 61736  98.7163  50.1471 0000659  39.1292 320.9934 14.22759114132106
PRSC-EO1                
1 62725U 25012A   26177.22450975  .00008001  00000+0  39974-3 0  9992
2 62725  97.4227 249.5074 0005521 214.4034 145.6843 15.17715429 79567
BIOMASS                 
1 63772U 25090A   26176.41992450  .00000661  00000+0  12495-3 0  9993
2 63772  98.0741   3.6181 0001429  94.8977 265.2391 14.67536962 61896
GOSAT-GW (IBUKI GW)     
1 64694U 25141A   26177.19010010  .00000551  00000+0  10554-3 0  9995
2 64694  98.0567 114.3609 0001449  85.5013 274.6357 14.67552091 53169
IONOSFERA-M 3           
1 64876U 25155A   26177.18518669  .00000038  00000+0  36950-4 0  9993
2 64876  98.6027 138.8638 0001535 141.7385 218.3902 14.21487896 47685
