OBJECT_NAME,OBJECT_ID,EPOCH,MEAN_MOTION,ECCENTRICITY,INCLINATION,RA_OF_ASC_NODE,ARG_OF_PERICENTER,MEAN_ANOMALY,EPHEMERIS_TYPE,CLASSIFICATION_TYPE,NORAD_CAT_ID,ELEMENT_SET_NO,REV_AT_EPOCH,BSTAR,MEAN_MOTION_DOT,MEAN_MOTION_DDOT
SAUDISAT 5A,2018-102A,2026-06-26T04:50:14.131680,15.28135907,.0011316,97.3069,238.6087,101.7469,258.5041,0,U,43831,999,41705,.23298E-3,.6328E-4,0
SAUDISAT 5B,2018-102C,2026-06-26T05:15:12.509856,15.28388207,.0012036,97.3178,241.7117,103.6175,256.6406,0,U,43833,999,41717,.21502E-3,.5881E-4,0
GAOFEN-10R,2019-066A,2026-06-26T04:40:27.395328,14.83017983,.0007123,98.0499,130.8396,101.8406,258.3606,0,U,44622,999,36371,.14253E-3,.1104E-4,0
CARTOSAT-3,2019-081A,2026-06-26T04:19:55.365024,15.19199662,.0013146,97.4307,238.9032,119.2572,240.9978,0,U,44804,999,36483,.26384E-3,.5497E-4,0
GAOFEN-12 01,2019-082A,2026-06-26T04:53:51.232416,14.80465305,.0001931,97.8101,183.3454,61.2895,298.8511,0,U,44819,999,35542,.56839E-4,.384E-5,0
CSG-1,2019-092A,2026-06-26T03:57:58.607424,14.82160138,.0001449,97.8890,0.6378,89.8663,270.2716,0,U,44873,999,35280,.57936E-4,.409E-5,0
NEMO-HD,2020-061F,2026-06-26T04:46:43.739040,15.44768000,.000185,97.1923,239.0612,74.9423,285.2030,0,U,46277,999,32337,.25834E-3,.12002E-3,0
SENTINEL-6A,2020-086A,2026-06-26T03:24:54.027072,12.80929982,.0007872,66.0407,116.4528,270.0438,89.9675,0,U,46984,999,26147,-.4802E-4,-.72E-6,0
CAS500-1,2021-022A,2026-06-26T05:06:15.792192,15.20170129,.0003542,97.3897,72.2832,250.6019,109.4834,0,U,47932,999,29213,.30324E-3,.6498E-4,0
GAOFEN-12 02,2021-026A,2026-06-26T05:11:10.323744,14.80302599,.0004395,97.9923,175.3597,187.6768,172.4377,0,U,48079,999,28309,.53809E-4,.357E-5,0
PLEIADES NEO 3,2021-034A,2026-06-26T04:01:06.314880,14.81671980,.0001392,97.8933,251.8047,88.9286,271.2086,0,U,48268,999,27898,.25071E-3,.1921E-4,0
PLEIADES NEO 4,2021-073E,2026-06-25T19:06:13.224096,14.81678649,.0001377,97.8934,251.4352,85.9629,274.1741,0,U,49070,999,26264,.11725E-3,.871E-5,0
LANDSAT 9,2021-088A,2026-06-26T04:36:54.916128,14.57102844,.0001275,98.2278,247.2607,84.6277,275.5067,0,U,49260,999,25231,.79879E-4,.314E-5,0
CSG-2,2022-008A,2026-06-26T04:46:32.888928,14.82149887,.0001527,97.8890,0.6660,85.2434,274.8953,0,U,51444,999,23792,.65065E-4,.466E-5,0
GAOFEN-12 03,2022-069A,2026-06-26T04:19:11.681184,14.80047780,.0002321,97.8275,64.8231,93.3980,266.7497,0,U,52912,999,21594,.15494E-3,.1123E-4,0
SWOT,2022-173A,2026-06-26T03:13:32.139264,14.00170618,.0000283,77.6102,23.2312,85.7977,274.3207,0,U,54754,999,18040,.18587E-4,.25E-6,0
GAOFEN-12 04,2023-123A,2026-06-26T03:04:38.151840,14.79741613,.0003987,97.9116,95.0170,89.3975,270.7694,0,U,57654,999,15395,.62137E-4,.416E-5,0
PARS 1,2024-039Q,2026-06-26T04:23:29.814144,15.45902515,.0011526,97.4820,158.3868,85.3463,274.9102,0,U,59065,999,13003,.24774E-3,.11984E-3,0
RESURS-P 4,2024-061A,2026-06-26T03:29:15.103680,15.32178714,.000276,97.2749,124.8879,116.6075,243.5450,0,U,59371,999,12513,.10684E-3,.3243E-4,0
LEGION 1,2024-081A,2026-06-26T04:47:23.298144,15.16723813,.000864,97.5019,254.9602,346.3604,13.7395,0,U,59625,999,11890,.19134E-3,.3686E-4,0
LEGION 2,2024-081B,2026-06-26T03:55:44.460192,15.16701681,.0010089,97.5019,255.0220,309.6015,50.4326,0,U,59626,999,11890,.23231E-3,.4489E-4,0
ALOS-4 (DAICHI-4),2024-123A,2026-06-26T06:56:06.213120,14.79474324,.000158,97.9218,274.3344,95.7742,264.3649,0,U,60182,999,10722,.20065E-3,.1447E-4,0
LEGION 3,2024-146A,2026-06-26T03:47:36.271680,15.16106210,.000872,45.0026,342.4412,220.3591,139.6641,0,U,60452,999,10338,.23081E-3,.4263E-4,0
LEGION 4,2024-146B,2026-06-26T03:52:09.713856,15.16097368,.0012777,45.0017,74.3343,356.9313,3.1485,0,U,60453,999,10223,.23074E-3,.4263E-4,0
SENTINEL-2C,2024-157A,2026-06-26T04:38:39.867936,14.30820079,.000094,98.5691,251.8483,87.8570,272.2721,0,U,60989,999,9427,.51714E-4,.92E-6,0
IONOSFERA-M 1,2024-199A,2026-06-26T04:41:31.727904,14.22755898,.0002152,98.7164,50.2722,98.4867,261.6555,0,U,61735,999,12898,.44388E-4,.56E-6,0
IONOSFERA-M 2,2024-199B,2026-06-26T03:49:36.803136,14.22759114,.0000659,98.7163,50.1471,39.1292,320.9934,0,U,61736,999,13210,.44418E-4,.56E-6,0
PRSC-EO1,2025-012A,2026-06-26T05:23:17.642400,15.17715429,.0005521,97.4227,249.5074,214.4034,145.6843,0,U,62725,999,7956,.39974E-3,.8001E-4,0
BIOMASS,2025-090A,2026-06-25T10:04:41.476800,14.67536962,.0001429,98.0741,3.6181,94.8977,265.2391,0,U,63772,999,6189,.12495E-3,.661E-5,0
GOSAT-GW (IBUKI GW),2025-141A,2026-06-26T04:33:44.648640,14.67552091,.0001449,98.0567,114.3609,85.5013,274.6357,0,U,64694,999,5316,.10554E-3,.551E-5,0
IONOSFERA-M 3,2025-155A,2026-06-26T04:26:40.130016,14.21487896,.0001535,98.6027,138.8638,141.7385,218.3902,0,U,64876,999,4768,.3695E-4,.38E-6,0
